{
  "type": "FeatureCollection",
  "features": [
    {
      "type": "Feature",
      "properties": {
        "norad_id": 33972,
        "name": "COSMOS 2251 DEB",
        "group": "cosmos-2251-debris",
        "lat": -46.68040856915413,
        "lon": 32.66675722182531,
        "alt_km": 838.1885108871447,
        "timestamp": "2025-12-10T09:57:45.091045+00:00",
        "meta_object_name": "COSMOS 2251 DEB",
        "meta_object_id": "1993-036FF",
        "meta_epoch": "2025-12-10T01:14:22.961760",
        "meta_mean_motion": 14.36191385,
        "meta_eccentricity": 0.0123149,
        "meta_inclination": 73.9944,
        "meta_ra_of_asc_node": 195.6145,
        "meta_arg_of_pericenter": 3.92,
        "meta_mean_anomaly": 147.8201,
        "meta_ephemeris_type": 0,
        "meta_classification_type": "U",
        "meta_norad_cat_id": 33972,
        "meta_element_set_no": 999,
        "meta_rev_at_epoch": 87035,
        "meta_bstar": 0.0013679,
        "meta_mean_motion_dot": 4.325e-05,
        "meta_mean_motion_ddot": 0,
        "tle_line1": "1 33972U 93036FF  25344.05165465  .00004325  00000+0  13679-2 0  9996",
        "tle_line2": "2 33972  73.9944 195.6145 0123149   3.9200 147.8201 14.36191385870354"
      },
      "geometry": {
        "type": "Point",
        "coordinates": [
          32.66675722182531,
          -46.68040856915413
        ]
      }
    },
    {
      "type": "Feature",
      "properties": {
        "norad_id": 33973,
        "name": "COSMOS 2251 DEB",
        "group": "cosmos-2251-debris",
        "lat": -72.91912541074622,
        "lon": -3.8095830831236714,
        "alt_km": 716.5015658720868,
        "timestamp": "2025-12-10T09:57:45.091054+00:00",
        "meta_object_name": "COSMOS 2251 DEB",
        "meta_object_id": "1993-036FG",
        "meta_epoch": "2025-12-09T14:32:15.091008",
        "meta_mean_motion": 14.4538571,
        "meta_eccentricity": 0.004727,
        "meta_inclination": 74.0079,
        "meta_ra_of_asc_node": 108.744,
        "meta_arg_of_pericenter": 287.7375,
        "meta_mean_anomaly": 86.6082,
        "meta_ephemeris_type": 0,
        "meta_classification_type": "U",
        "meta_norad_cat_id": 33973,
        "meta_element_set_no": 999,
        "meta_rev_at_epoch": 88555,
        "meta_bstar": 0.00027525,
        "meta_mean_motion_dot": 9.53e-06,
        "meta_mean_motion_ddot": 0,
        "tle_line1": "1 33973U 93036FG  25343.60573022  .00000953  00000+0  27525-3 0  9998",
        "tle_line2": "2 33973  74.0079 108.7440 0047270 287.7375  86.6082 14.45385710885556"
      },
      "geometry": {
        "type": "Point",
        "coordinates": [
          -3.8095830831236714,
          -72.91912541074622
        ]
      }
    },
    {
      "type": "Feature",
      "properties": {
        "norad_id": 33975,
        "name": "COSMOS 2251 DEB",
        "group": "cosmos-2251-debris",
        "lat": -38.51696589010691,
        "lon": -78.08400060340882,
        "alt_km": 758.9369056850628,
        "timestamp": "2025-12-10T09:57:45.091064+00:00",
        "meta_object_name": "COSMOS 2251 DEB",
        "meta_object_id": "1993-036FJ",
        "meta_epoch": "2025-12-09T17:28:39.314784",
        "meta_mean_motion": 14.00515385,
        "meta_eccentricity": 0.0191374,
        "meta_inclination": 73.8024,
        "meta_ra_of_asc_node": 89.7466,
        "meta_arg_of_pericenter": 223.0996,
        "meta_mean_anomaly": 135.502,
        "meta_ephemeris_type": 0,
        "meta_classification_type": "U",
        "meta_norad_cat_id": 33975,
        "meta_element_set_no": 999,
        "meta_rev_at_epoch": 85787,
        "meta_bstar": 0.0011881,
        "meta_mean_motion_dot": 2.041e-05,
        "meta_mean_motion_ddot": 0,
        "tle_line1": "1 33975U 93036FJ  25343.72823281  .00002041  00000+0  11881-2 0  9995",
        "tle_line2": "2 33975  73.8024  89.7466 0191374 223.0996 135.5020 14.00515385857872"
      },
      "geometry": {
        "type": "Point",
        "coordinates": [
          -78.08400060340882,
          -38.51696589010691
        ]
      }
    },
    {
      "type": "Feature",
      "properties": {
        "norad_id": 33980,
        "name": "COSMOS 2251 DEB",
        "group": "cosmos-2251-debris",
        "lat": -63.91596919795058,
        "lon": 28.003518891616196,
        "alt_km": 701.4105457224277,
        "timestamp": "2025-12-10T09:57:45.091074+00:00",
        "meta_object_name": "COSMOS 2251 DEB",
        "meta_object_id": "1993-036FP",
        "meta_epoch": "2025-12-09T16:52:58.778112",
        "meta_mean_motion": 14.58620527,
        "meta_eccentricity": 0.0028862,
        "meta_inclination": 74.0215,
        "meta_ra_of_asc_node": 65.1826,
        "meta_arg_of_pericenter": 210.8804,
        "meta_mean_anomaly": 304.3631,
        "meta_ephemeris_type": 0,
        "meta_classification_type": "U",
        "meta_norad_cat_id": 33980,
        "meta_element_set_no": 999,
        "meta_rev_at_epoch": 88750,
        "meta_bstar": 0.0012385,
        "meta_mean_motion_dot": 5.775e-05,
        "meta_mean_motion_ddot": 0,
        "tle_line1": "1 33980U 93036FP  25343.70345808  .00005775  00000+0  12385-2 0  9990",
        "tle_line2": "2 33980  74.0215  65.1826 0028862 210.8804 304.3631 14.58620527887509"
      },
      "geometry": {
        "type": "Point",
        "coordinates": [
          28.003518891616196,
          -63.91596919795058
        ]
      }
    },
    {
      "type": "Feature",
      "properties": {
        "norad_id": 33982,
        "name": "COSMOS 2251 DEB",
        "group": "cosmos-2251-debris",
        "lat": 44.53989797687694,
        "lon": 168.04221307899292,
        "alt_km": 682.0430005510761,
        "timestamp": "2025-12-10T09:57:45.091084+00:00",
        "meta_object_name": "COSMOS 2251 DEB",
        "meta_object_id": "1993-036FR",
        "meta_epoch": "2025-12-10T03:02:24.402048",
        "meta_mean_motion": 14.60195088,
        "meta_eccentricity": 0.0075004,
        "meta_inclination": 74.0709,
        "meta_ra_of_asc_node": 4.914,
        "meta_arg_of_pericenter": 50.1732,
        "meta_mean_anomaly": 6.4723,
        "meta_ephemeris_type": 0,
        "meta_classification_type": "U",
        "meta_norad_cat_id": 33982,
        "meta_element_set_no": 999,
        "meta_rev_at_epoch": 89121,
        "meta_bstar": 0.00050525,
        "meta_mean_motion_dot": 2.503e-05,
        "meta_mean_motion_ddot": 0,
        "tle_line1": "1 33982U 93036FR  25344.12667132  .00002503  00000+0  50525-3 0  9991",
        "tle_line2": "2 33982  74.0709   4.9140 0075004  50.1732   6.4723 14.60195088891211"
      },
      "geometry": {
        "type": "Point",
        "coordinates": [
          168.04221307899292,
          44.53989797687694
        ]
      }
    },
    {
      "type": "Feature",
      "properties": {
        "norad_id": 33983,
        "name": "COSMOS 2251 DEB",
        "group": "cosmos-2251-debris",
        "lat": 34.63502835469796,
        "lon": -39.98209453506392,
        "alt_km": 726.2672230739936,
        "timestamp": "2025-12-10T09:57:45.091094+00:00",
        "meta_object_name": "COSMOS 2251 DEB",
        "meta_object_id": "1993-036FS",
        "meta_epoch": "2025-12-09T22:25:04.022112",
        "meta_mean_motion": 14.50650706,
        "meta_eccentricity": 0.0021373,
        "meta_inclination": 74.0493,
        "meta_ra_of_asc_node": 152.3152,
        "meta_arg_of_pericenter": 255.5475,
        "meta_mean_anomaly": 257.2704,
        "meta_ephemeris_type": 0,
        "meta_classification_type": "U",
        "meta_norad_cat_id": 33983,
        "meta_element_set_no": 999,
        "meta_rev_at_epoch": 88588,
        "meta_bstar": 0.00075773,
        "meta_mean_motion_dot": 2.957e-05,
        "meta_mean_motion_ddot": 0,
        "tle_line1": "1 33983U 93036FS  25343.93407433  .00002957  00000+0  75773-3 0  9991",
        "tle_line2": "2 33983  74.0493 152.3152 0021373 255.5475 257.2704 14.50650706885881"
      },
      "geometry": {
        "type": "Point",
        "coordinates": [
          -39.98209453506392,
          34.63502835469796
        ]
      }
    },
    {
      "type": "Feature",
      "properties": {
        "norad_id": 33984,
        "name": "COSMOS 2251 DEB",
        "group": "cosmos-2251-debris",
        "lat": 57.75042312674774,
        "lon": 144.55886140522858,
        "alt_km": 661.804231263799,
        "timestamp": "2025-12-10T09:57:45.091105+00:00",
        "meta_object_name": "COSMOS 2251 DEB",
        "meta_object_id": "1993-036FT",
        "meta_epoch": "2025-12-10T03:12:08.650080",
        "meta_mean_motion": 14.66325659,
        "meta_eccentricity": 0.0023286,
        "meta_inclination": 74.0097,
        "meta_ra_of_asc_node": 352.1341,
        "meta_arg_of_pericenter": 190.9892,
        "meta_mean_anomaly": 241.3244,
        "meta_ephemeris_type": 0,
        "meta_classification_type": "U",
        "meta_norad_cat_id": 33984,
        "meta_element_set_no": 999,
        "meta_rev_at_epoch": 89028,
        "meta_bstar": 0.0011607,
        "meta_mean_motion_dot": 6.407e-05,
        "meta_mean_motion_ddot": 0,
        "tle_line1": "1 33984U 93036FT  25344.13343345  .00006407  00000+0  11607-2 0  9995",
        "tle_line2": "2 33984  74.0097 352.1341 0023286 190.9892 241.3244 14.66325659890288"
      },
      "geometry": {
        "type": "Point",
        "coordinates": [
          144.55886140522858,
          57.75042312674774
        ]
      }
    }
  ]
}